[{"OBJECT_NAME":"STARLINK-30467","OBJECT_ID":"2023-146E","EPOCH":"2026-03-09T22:00:01.999584","MEAN_MOTION":15.12880838,"ECCENTRICITY":0.00023153,"INCLINATION":42.9991,"RA_OF_ASC_NODE":312.0737,"ARG_OF_PERICENTER":235.3451,"MEAN_ANOMALY":23.4393,"EPHEMERIS_TYPE":0,"CLASSIFICATION_TYPE":"U","NORAD_CAT_ID":57895,"ELEMENT_SET_NO":999,"REV_AT_EPOCH":547,"BSTAR":0.087923825,"MEAN_MOTION_DOT":0.01725536,"MEAN_MOTION_DDOT":0},{"OBJECT_NAME":"AAC-HSI-SAT3","OBJECT_ID":"2023-174DH","EPOCH":"2026-03-09T23:15:51.401952","MEAN_MOTION":15.15239914,"ECCENTRICITY":0.00104695,"INCLINATION":97.3525,"RA_OF_ASC_NODE":131.622,"ARG_OF_PERICENTER":2.3661,"MEAN_ANOMALY":357.7619,"EPHEMERIS_TYPE":0,"CLASSIFICATION_TYPE":"U","NORAD_CAT_ID":58848,"ELEMENT_SET_NO":999,"REV_AT_EPOCH":12887,"BSTAR":0.00020496498,"MEAN_MOTION_DOT":3.793e-5,"MEAN_MOTION_DDOT":0}]
